JAS-2 (FO-29)           
1 24278U 96046B   26095.55813364  .00000010  00000+0  49616-4 0  9995
2 24278  98.5334 314.3380 0348876 284.9629  71.3141 13.53270629463340
FORTE                   
1 24920U 97047A   26095.80324453  .00000259  00000+0  12761-3 0  9990
2 24920  69.9537 177.5127 0021227   9.4868 350.6650 14.27914521488356
NOAA 15                 
1 25338U 98030A   26095.83177376  .00000183  00000+0  92320-4 0  9996
2 25338  98.5130 118.4009 0009967 192.9930 167.0995 14.27124058450972
TECHSAT 1B (GO-32)      
1 25397U 98043D   26095.85422792  .00000106  00000+0  65793-4 0  9991
2 25397  99.0053  86.7978 0002295  75.7964 284.3469 14.24413894441033
ISS (ZARYA)             
1 25544U 98067A   26095.81141530  .00008309  00000+0  15990-3 0  9991
2 25544  51.6329 298.2672 0006355 276.3215  83.7049 15.48791307560534
ORSTED                  
1 25635U 99008B   26095.74254772  .00001216  00000+0  27655-3 0  9994
2 25635  96.4829  19.7107 0133475  59.4028 302.0259 14.51727774431450
LANDSAT 7               
1 25682U 99020A   26095.86494860  .00000650  00000+0  13288-3 0  9995
2 25682  97.8604 102.8142 0001282  78.4667  17.3802 14.63855458435268
ORBCOMM FM36            
1 25984U 99065E   26095.42671465  .00001518  00000+0  53236-3 0  9990
2 25984  45.0380 144.9646 0004237 298.0165  62.0255 14.39058381376504
DMSP 5D-3 F15 (USA 147) 
1 25991U 99067A   26095.89781375  .00000211  00000+0  12661-3 0  9999
2 25991  99.0046 133.5241 0009655 202.5993 332.0045 14.17536560360408
OPAL (OO-38)            
1 26063U 00004C   26095.74300400  .00000244  00000+0  99741-4 0  9994
2 26063 100.1891  19.2198 0035146 239.3947 120.3766 14.37938904372875
IMAGE                   
1 26113U 00017A   26093.56913830  .00000069  00000+0  23761-2 0  9991
2 26113  94.1690 314.3777 7488522 296.3083   7.4714  1.68665511160248
CLUSTER II-FM7 (SAMBA)  
1 26410U 00041A   26090.03773165  .00002444  00000+0  00000+0 0  9999
2 26410 149.3581  38.1493 8953066 254.4502   0.4223  0.44796982 19968
CLUSTER II-FM8 (TANGO)  
1 26464U 00045B   26094.11120259  .00003194  00000+0  00000+0 0  9998
2 26464 149.6837  39.5667 8962149 255.7736   0.6086  0.44400104 19975
MEGSAT-1                
1 26546U 00057B   26095.86167155  .00003635  00000+0  26280-3 0  9993
2 26546  64.5504 300.8033 0039232 291.5628  68.1310 15.05090444386770
PHASE 3D (AO-40)        
1 26609U 00072B   26088.95542898 -.00000317  00000+0  00000+0 0  9996
2 26609   9.5411   3.2104 7938958 153.6172 292.5885  1.25588345116513
ODIN                    
1 26702U 01007A   26095.60418383  .00054902  00000+0  64048-3 0  9994
2 26702  97.4006 132.7992 0004379  83.9401 276.2355 15.61468513378037
OMNI-M1                 
1 26857U 01026A   26092.29880186 -.00000028  00000+0  00000+0 0  9997
2 26857  44.8633 262.7500 0016940  37.5963 322.5250  3.92401908202596
